PROMETHEUS 2-3          
1 41855U 16067H   25170.11280847  .00036263  00000+0  66435-3 0  9995
2 41855  98.0716  23.7392 0005019 205.0173 155.0833 15.49226815471881
CORVUS BC2              
1 42846U 17042X   25170.43001189  .00003511  00000+0  26482-3 0  9993
2 42846  97.3732 342.5419 0013418 270.9347  89.0341 15.02990476432517
CORVUS BC1              
1 42847U 17042Y   25170.41283863  .00002824  00000+0  21252-3 0  9999
2 42847  97.3793 343.0691 0011194 242.8699 117.1386 15.03251683432535
MIRATA                  
1 43015U 17073C   25170.44017195  .00073686  00000+0  11323-2 0  9998
2 43015  97.5381  65.7084 0079491  51.2274 309.6044 15.50364376412338
MAKERSAT 0              
1 43016U 17073D   25170.11386401  .00013704  00000+0  54334-3 0  9997
2 43016  97.5183  48.2042 0147990 107.0667 254.6837 15.15865599411180
SIRION PATHFINDER-2     
1 43759U 18099B   25170.38941081  .00003739  00000+0  23375-3 0  9998
2 43759  97.4766 223.0802 0011380 109.8013 250.4445 15.09985748357792
CORVUS BC4              
1 43767U 18099K   25170.09927919  .00003157  00000+0  20647-3 0  9992
2 43767  97.4574 218.5711 0009582 162.0670 198.0899 15.08453622357595
MOVE-II                 
1 43780U 18099Y   25170.79211799  .00303745  00000+0  13972-2 0  9994
2 43780  97.4628 247.2569 0005530 206.0084 154.0908 15.82802725359417
SPACEBEE-7              
1 43816U 18099BL  25170.43267521  .00026408  00000+0  73257-3 0  9990
2 43816  97.4949 240.8481 0007144  88.1409 272.0653 15.36878181358312
SHIELDS 1               
1 43850U 18104B   25170.05164359  .00028031  00000+0  32400-3 0  9997
2 43850  85.0143  29.8774 0008872 105.5566 254.6677 15.61678842362931
SONATE                  
1 44400U 19038Q   25170.34456096  .00489735  11021-3  83765-3 0  9991
2 44400  97.6770 198.7918 0008774 191.2060 168.9025 16.02449050331131
DUCHIFAT-3              
1 44854U 19089C   25170.69290019  .00034826  00000+0  66084-3 0  9992
2 44854  36.9430 290.8566 0003740  30.2179 329.8793 15.47381152304515
M2 PATHFINDER           
1 45727U 20037E   25170.46377509  .00002764  00000+0  21407-3 0  9998
2 45727  97.8122 353.1832 0012306 298.5289  61.4695 15.02240136270998
NETSAT-4                
1 46504U 20068U   25170.74196398  .00009903  00000+0  33684-3 0  9994
2 46504  97.8452 149.1454 0007999 153.4350 206.7301 15.30635114260106
NETSAT-3                
1 46505U 20068V   25170.74440905  .00009291  00000+0  33107-3 0  9991
2 46505  97.8454 148.0652 0007430 163.3534 196.7950 15.29140778260069
NETSAT-1                
1 46506U 20068W   25170.36956064  .00007251  00000+0  29959-3 0  9992
2 46506  97.8481 145.4254 0006415 179.2403 180.8844 15.24314617259853
NETSAT-2                
1 46507U 20068X   25170.40812147  .00011244  00000+0  38664-3 0  9991
2 46507  97.8453 148.2728 0005512 175.0975 185.0319 15.30257361259993
WILDTRACKCUBE-SIMBA     
1 47941U 21022K   25170.86914526  .00021480  00000+0  44171-3 0  9992
2 47941  97.4216  75.6392 0007006 273.4366  86.6082 15.45968271234784
LEDSAT                  
1 49069U 21073D   25170.17612243  .00062140  00000+0  70796-3 0  9996
2 49069  97.3882 252.1227 0008152  49.8527 310.3444 15.62026176212931
GREENCUBE (IO-117)      
1 53109U 22080E   25170.24023449 -.00000003  00000+0  00000+0 0  9995
2 53109  70.1415  64.4606 0008704   7.5912 352.4878  6.42583731 68748
SITRO-AIS 5 (KATYS)     
1 57176U 23091L   25170.82584213  .00006916  00000+0  32429-3 0  9993
2 57176  97.5578 227.7927 0012368 296.3841  63.6124 15.19934272109137
SITRO-AIS 6 (CHIRKIN)   
1 57192U 23091AC  25170.81385476  .00006428  00000+0  30251-3 0  9999
2 57192  97.5576 227.7893 0012304 296.1993  63.7976 15.19839466109136
SITRO-AIS 8 (ANOKHIN)   
1 57193U 23091AD  25170.84356265  .00007767  00000+0  35009-3 0  9990
2 57193  97.5572 228.3455 0011731 295.5089  64.4933 15.21261828109175
SITRO-AIS 7 (FARTUSHNIY)
1 57194U 23091AE  25170.83607641  .00006113  00000+0  28872-3 0  9991
2 57194  97.5576 227.7490 0012167 296.9047  63.0944 15.19737371109136
SITRO-AIS 10 (BURDAEV)  
1 57199U 23091AK  25170.86795113  .00008795  00000+0  35884-3 0  9990
2 57199  97.5585 230.7471 0007566 275.8455  84.1920 15.24645069109327
SITRO-AIS 9 (SHCHUKIN)  
1 57201U 23091AM  25170.82131191  .00008764  00000+0  35959-3 0  9999
2 57201  97.5582 230.6105 0007537 276.3764  83.6614 15.24454014109319
SITRO-AIS 12 (SMIRENNIY)
1 57204U 23091AQ  25170.86767941  .00008917  00000+0  36364-3 0  9995
2 57204  97.5591 230.9439 0007479 268.3549  91.6831 15.24656466109339
SITRO-AIS 11 (SHEFFER)  
1 57208U 23091AU  25170.81928092  .00008781  00000+0  35598-3 0  9997
2 57208  97.5589 230.9864 0007319 268.6725  91.3674 15.24862671109333
VERONIKA                
1 58261U 23174F   25170.70724331  .00134892  00000+0  96312-3 0  9991
2 58261  97.4101 257.5118 0001543 299.7532  60.3578 15.73373397 90270
ROBUSTA-1E (ENSO)       
1 58470U 23185J   25170.85998676  .00042853  00000+0  59437-3 0  9998
2 58470  97.3728 246.3155 0006387  56.3550 303.8313 15.56917268 86630
SITRO-AIS 25            
1 59066U 24039R   25170.87309909  .00004411  00000+0  37281-3 0  9997
2 59066  95.3759 347.0134 0156567 150.5990 210.4157 14.89225447 70729
SITRO-AIS 26            
1 59067U 24039S   25170.83281519  .00005363  00000+0  45415-3 0  9995
2 59067  95.3760 346.9442 0156806 150.9688 210.0370 14.89077677 70718
SITRO-AIS 27            
1 59068U 24039T   25170.82560118  .00005170  00000+0  43508-3 0  9997
2 59068  95.3759 347.0669 0156062 150.3283 210.6908 14.89400973 70722
SITRO-AIS 28            
1 59071U 24039U   25170.81237439  .00004429  00000+0  37281-3 0  9994
2 59071  95.3761 347.0850 0155910 150.2937 210.7255 14.89442707 70724
GRBBETA                 
1 60237U 24128C   25170.38472623  .00003819  00000+0  29178-3 0  9995
2 60237  61.9924  45.3702 0052712  59.7479 300.8815 15.02717133 51674
OOV-CUBE (TUBSAT-30)    
1 60240U 24128F   25170.06061945  .00002316  00000+0  19502-3 0  9996
2 60240  61.9969  49.4359 0052785  56.5921 304.0201 15.00309669 51581
ROBUSTA-3A (MEDITERRAN*)
1 60243U 24128J   25170.07841556  .00006283  00000+0  44502-3 0  9999
2 60243  61.9892  45.4511 0051426  53.5640 307.0176 15.04781210 51653
LASARSAT                
1 62391U 24247Q   25170.52702503  .00011454  00000+0  44524-3 0  9995
2 62391  44.9834 105.7561 0007185 109.9060 250.2597 15.26169975 27589
CROCUBE                 
1 62394U 24247T   25170.19264834  .00013256  00000+0  51046-3 0  9990
2 62394  44.9781 107.4673 0007556 108.0520 252.1186 15.26358377 27535
